#cP2012 11  8  0  0  0.00000000     288 u+U   IGb08 FIT  TUM
## 1713 345600.00000000   300.00000000 56239 0.0000000000000
+    3   J01E11E12  0  0  0  0  0  0  0  0  0  0  0  0  0  0
+          0  0  0  0  0  0  0  0  0  0  0  0  0  0  0  0  0
+          0  0  0  0  0  0  0  0  0  0  0  0  0  0  0  0  0
+          0  0  0  0  0  0  0  0  0  0  0  0  0  0  0  0  0
+          0  0  0  0  0  0  0  0  0  0  0  0  0  0  0  0  0
++         5  1  1  0  0  0  0  0  0  0  0  0  0  0  0  0  0
++         0  0  0  0  0  0  0  0  0  0  0  0  0  0  0  0  0
++         0  0  0  0  0  0  0  0  0  0  0  0  0  0  0  0  0
++         0  0  0  0  0  0  0  0  0  0  0  0  0  0  0  0  0
++         0  0  0  0  0  0  0  0  0  0  0  0  0  0  0  0  0
%c E  cc GPS ccc cccc cccc cccc cccc ccccc ccccc ccccc ccccc
%c cc cc ccc ccc cccc cccc cccc cccc ccccc ccccc ccccc ccccc
%f  1.2500000  1.025000000  0.00000000000  0.000000000000000
%f  0.0000000  0.000000000  0.00000000000  0.000000000000000
%i    0    0    0    0      0      0      0      0         0
%i    0    0    0    0      0      0      0      0         0
/* Galileo+QZSS orbits for MGEX based on CONGO+MGEX data    
/* Technische Universitaet Muenchen (TUM)                   
/* Further information: www.iapg.bv.tum.de/mgex             
/* PCV:IGS08_1645 OL/AL:FES2004  NONE     YN ORB:CoN CLK:CoN
*  2012 11  8 13 20  0.00000000
PJ01 -22203.867309  34724.542106  -4212.923621    351.091656
PE11  -2551.145519 -23336.250435  18023.783326    229.279299
PE12  12771.096903 -11344.605963  24173.390776    462.870927
*  2012 11  8 13 25  0.00000000
PJ01 -21975.398400  34711.114203  -4807.523668    351.091781
PE11  -2205.334849 -22906.759714  18610.687879    229.394879
PE12  13235.511641 -10784.826895  24179.756670    462.896415
*  2012 11  8 13 30  0.00000000
PJ01 -21747.133554  34686.708710  -5399.686109    351.091918
PE11  -1838.620986 -22472.124431  19171.840028    229.510565
PE12  13712.212850 -10235.884107  24152.679440    462.921946
*  2012 11  8 13 35  0.00000000
PJ01 -21519.506457  34651.257591  -5989.097167    351.092166
PE11  -1451.139326 -22033.649802  19706.463319    229.626151
PE12  14200.272879  -9698.791429  24092.196408    462.947454
*  2012 11  8 13 40  0.00000000
PJ01 -21292.954375  34604.712192  -6575.441472    351.092315
PE11  -1043.101086 -21592.636945  20213.818020    229.741765
PE12  14698.710571  -9174.510205  23998.391083    462.972974
*  2012 11  8 13 45  0.00000000
PJ01 -21067.917312  34547.043522  -7158.402241    351.092480
PE11   -614.792840 -21150.378395  20693.202143    229.857352
PE12  15206.494512  -8663.946157  23871.393043    462.998486
*  2012 11  8 13 50  0.00000000
PJ01 -20844.837150  34478.242482  -7737.661475    351.092688
PE11   -166.575782 -20708.153647  21143.952420    229.972981
PE12  15722.546464  -8167.946438  23711.377758    463.023993
*  2012 11  8 13 55  0.00000000
PJ01 -20624.156785  34398.320077  -8312.900155    351.092905
PE11    301.115269 -20267.224755  21565.445217    230.088627
PE12  16245.744961  -7687.296901  23518.566352    463.049493
*  2012 11  8 14  0  0.00000000
PJ01 -20406.319234  34307.307569  -8883.798451    351.092994
PE11    787.773121 -19828.831993  21957.097397    230.204154
PE12  16774.929063  -7222.719577  23293.225292    463.074989
*  2012 11  8 14  5  0.00000000
PJ01 -20191.766745  34205.256609  -9450.035946    351.093209
PE11   1292.819708 -19394.189594  22318.367130    230.319781
PE12  17308.902240  -6774.870376  23035.666035    463.100536
*  2012 11  8 14 10  0.00000000
PJ01 -19980.939892  34092.239314 -10011.291835    351.093458
PE11   1815.607865 -18964.481595  22648.754630    230.435322
PE12  17846.436407  -6344.337037  22746.244579    463.126034
*  2012 11  8 14 15  0.00000000
PJ01 -19774.276659  33968.348318 -10567.245178    351.093587
PE11   2355.423299 -18540.857776  22947.802856    230.550918
PE12  18386.276039  -5931.637297  22425.360992    463.151516
*  2012 11  8 14 20  0.00000000
PJ01 -19572.211523  33833.696766 -11117.575128    351.093735
PE11   2911.486839 -18124.429731  23215.098144    230.666558
PE12  18927.142421  -5537.217316  22073.458849    463.177023
*  2012 11  8 14 25  0.00000000
PJ01 -19375.174532  33688.418277 -11661.961180    351.093959
PE11   3482.956890 -17716.267077  23450.270770    230.782151
PE12  19467.737955  -5161.450356  21691.024628    463.202561
*  2012 11  8 14 30  0.00000000
PJ01 -19183.590381  33532.666858 -12200.083414    351.094154
PE11   4068.932109 -17317.393814  23652.995466    230.897787
PE12  20006.750548  -4804.635712  21278.587037    463.228104
*  2012 11  8 14 35  0.00000000
PJ01 -18997.877485  33366.616775 -12731.622764    351.094273
PE11   4668.454300 -16928.784843  23822.991868    231.013427
PE12  20542.858063  -4466.997904  20836.716283    463.253629
*  2012 11  8 14 40  0.00000000
PJ01 -18818.447064  33190.462385 -13256.261274    351.094520
PE11   5280.511495 -16551.362664  23960.024901    231.129042
PE12  21074.732785  -4148.686134  20366.023295    463.279131
*  2012 11  8 14 45  0.00000000
PJ01 -18645.702215  33004.417915 -13773.682380    351.094701
PE11   5904.041240 -16185.994259  24063.905105    231.244633
PE12  21601.045938  -3849.774003  19867.158868    463.304629
*  2012 11  8 14 50  0.00000000
PJ01 -18480.037014  32808.717206 -14283.571175    351.094825
PE11   6537.934041 -15833.488176  24134.488894    231.360201
PE12  22120.472189  -3570.259500  19340.812780    463.330131
*  2012 11  8 14 55  0.00000000
PJ01 -18321.835607  32603.613400 -14785.614703    351.095107
PE11   7181.036994 -15494.591812  24171.678754    231.475791
PE12  22631.694156  -3310.065246  18787.712828    463.355637
*  2012 11  8 15  0  0.00000000
PJ01 -18171.471322  32389.378596 -15279.502240    351.095309
PE11   7832.157549 -15169.988926  24175.423379    231.591367
PE12  23133.406881  -3069.039017  18208.623836    463.381161
*  2012 11  8 15  5  0.00000000
PJ01 -18029.305795  32166.303452 -15764.925596    351.095434
PE11   8490.067435 -14860.297367  24145.717738    231.706946
PE12  23624.322281  -2846.954518  17604.346588    463.406689
*  2012 11  8 15 10  0.00000000
PJ01 -17895.688101  31934.696745 -16241.579404    351.095637
PE11   9153.506689 -14566.067041  24082.603082    231.822564
PE12  24103.173524  -2643.512424  16975.716729    463.432213
*  2012 11  8 15 15  0.00000000
PJ01 -17770.953926  31694.884889 -16709.161428    351.095908
PE11   9821.187816 -14287.778119  23986.166886    231.938182
PE12  24568.719351  -2458.341672  16323.603616    463.457745
*  2012 11  8 15 20  0.00000000
PJ01 -17655.424735  31447.211402 -17167.372870    351.096069
PE11  10491.800040 -14025.839489  23856.542727    232.053823
PE12  25019.748303  -2291.001007  15648.909103    463.483273
*  2012 11  8 15 25  0.00000000
PJ01 -17549.406974  31192.036344 -17615.918674    351.096252
PE11  11164.013631 -13780.587463  23693.910102    232.169447
PE12  25455.082852  -2140.980780  14952.566312    463.508776
*  2012 11  8 15 30  0.00000000
PJ01 -17453.191305  30929.735695 -18054.507843    351.096503
PE11  11836.484319 -13552.284740  23498.494172    232.285099
PE12  25873.583423  -2007.704975  14235.538328    463.534297
*  2012 11  8 15 35  0.00000000
PJ01 -17367.051848  30660.700710 -18482.853751    351.096649
PE11  12507.857730 -13341.119631  23270.565457    232.400735
PE12  26274.152273  -1890.533482  13498.816886    463.559831
*  2012 11  8 15 40  0.00000000
PJ01 -17291.245478  30385.337213 -18900.674458    351.096815
PE11  13176.773902 -13147.205543  23010.439456    232.516326
PE12  26655.737247  -1788.764579  12743.420978    463.585328
*  2012 11  8 15 45  0.00000000
PJ01 -17226.011130  30104.064876 -19307.693026    351.097122
PE11  13841.871777 -12970.580732  22718.476215    232.631890
PE12  27017.335359  -1701.637651  11970.395466    463.610827
*  2012 11  8 15 50  0.00000000
PJ01 -17171.569161  29817.316436 -19703.637837    351.097316
PE11  14501.793737 -12811.208321  22395.079825    232.747461
PE12  27357.996227  -1628.336094  11180.809622    463.636340
*  2012 11  8 15 55  0.00000000
PJ01 -17128.120725  29525.536891 -20088.242909    351.097464
PE11  15155.190106 -12668.976583  22040.697863    232.863071
PE12  27676.825312  -1567.990434  10375.755651    463.661825
*  2012 11  8 16  0  0.00000000
PJ01 -17095.847211  29229.182662 -20461.248205    351.097791
PE11  15800.723634 -12543.699487  21655.820776    232.978687
PE12  27972.986970  -1519.681616   9556.347192    463.687365
*  2012 11  8 16  5  0.00000000
PJ01 -17074.909696  28928.720698 -20822.399963    351.098046
PE11  16437.073951 -12435.117503  21240.981199    233.094270
PE12  28245.707311  -1482.444484   8723.717755    463.712881
*  2012 11  8 16 10  0.00000000
PJ01 -17065.448467  28624.627598 -21171.450976    351.098185
PE11  17062.941942 -12342.898689  20796.753218    233.209888
PE12  28494.276831  -1455.271405   7879.019178    463.738395
*  2012 11  8 16 15  0.00000000
PJ01 -17067.582562  28317.388644 -21508.160930    351.098407
PE11  17677.054075 -12266.639998  20323.751576    233.325481
PE12  28718.052842  -1437.116060   7023.420006    463.763892
*  2012 11  8 16 20  0.00000000
PJ01 -17081.409376  28007.496854 -21832.296690    351.098631
PE11  18278.166621 -12205.868864  19822.630827    233.441100
PE12  28916.461657  -1426.897355   6158.103897    463.789388
*  2012 11  8 16 25  0.00000000
PJ01 -17107.004302  27695.451982 -22143.632603    351.098810
PE11  18865.069789 -12160.045026  19294.084423    233.556744
PE12  29089.000549  -1423.503465   5284.267963    463.814916
*  2012 11  8 16 30  0.00000000
PJ01 -17144.420433  27381.759511 -22441.950787    351.098989
PE11  19436.591737 -12128.562584  18738.843759    233.672360
PE12  29235.239457  -1425.795979   4403.121127    463.840422
*  2012 11  8 16 35  0.00000000
PJ01 -17193.688299  27066.929616 -22727.041424    351.099283
PE11  19991.602454 -12110.752302  18157.677160    233.787922
PE12  29354.822454  -1432.614148   3515.882440    463.865927
EOF
